OBJECT B                
1 51825U 22019B   24234.85478416  .00021699  00000+0  88973-3 0  9997
2 51825  97.4239 305.4701 0013468  14.5283 345.6339 15.24191603137222
